NORAD_CAT_ID,OBJECT_NAME,OBJECT_TYPE,EPOCH,MEAN_MOTION,ECCENTRICITY,INCLINATION,RA_OF_ASC_NODE,ARG_OF_PERICENTER,MEAN_ANOMALY,BSTAR,MEAN_MOTION_DOT,MEAN_MOTION_DDOT,TLE_LINE0,TLE_LINE1,TLE_LINE2,SEMIMAJOR_AXIS,PERIOD,APOGEE,PERIGEE,DECAYED
55958.0,STARLINK-5928,PAYLOAD,2024-02-16 20:15:27,14.98345784,0.0002294,70.0008,0.14,274.209,85.8807,-7.0372e-07,-1.01e-06,0.0,0 STARLINK-5928,1 55958U 23037AW  24047.84406469 -.00000101  00000-0 -70372-6 0  9994,2 55958  70.0008   0.1400 0002294 274.2090  85.8807 14.98345784 52191,6950.144,96.106,573.603,570.415,0.0
55958.0,STARLINK-5928,PAYLOAD,2024-02-16 21:51:35,14.98340731,0.0002397,70.0022,359.9748,260.7836,99.3052,-3.3858e-05,-4.97e-06,0.0,0 STARLINK-5928,1 55958U 23037AW  24047.91082705 -.00000497  00000-0 -33858-4 0  9999,2 55958  70.0022 359.9748 0002397 260.7836  99.3052 14.98340731 51861,6950.16,96.106,573.691,570.359,0.0
55958.0,STARLINK-5928,PAYLOAD,2024-02-17 04:16:08,14.98333449,0.0002604,70.002,359.3017,258.867,101.2196,-0.0001132,-1.443e-05,0.0,0 STARLINK-5928,1 55958U 23037AW  24048.17787156 -.00001443  00000-0 -11320-3 0  9991,2 55958  70.0020 359.3017 0002604 258.8670 101.2196 14.98333449 52240,6950.182,96.107,573.857,570.237,0.0
55958.0,STARLINK-5928,PAYLOAD,2024-02-17 13:52:55,14.98341021,0.000267,70.0016,358.2913,265.1175,94.9679,-0.00012926,-1.635e-05,0.0,0 STARLINK-5928,1 55958U 23037AW  24048.57842474 -.00001635  00000-0 -12926-3 0  9996,2 55958  70.0016 358.2913 0002670 265.1175  94.9679 14.98341021 51969,6950.159,96.106,573.88,570.168,0.0
55958.0,STARLINK-5928,PAYLOAD,2024-02-17 20:17:27,14.98348301,0.0002739,70.0016,357.6164,267.2973,92.7872,-0.00025998,-3.195e-05,0.0,0 STARLINK-5928,1 55958U 23037AW  24048.84546061 -.00003195  00000-0 -25998-3 0  9995,2 55958  70.0016 357.6164 0002739 267.2973  92.7872 14.98348301 52347,6950.136,96.106,573.905,570.098,0.0
55958.0,STARLINK-5928,PAYLOAD,2024-02-17 21:53:35,14.98348389,0.0002773,70.0016,357.4481,266.9973,93.0869,-0.00025336,-3.116e-05,0.0,0 STARLINK-5928,1 55958U 23037AW  24048.91221941 -.00003116  00000-0 -25336-3 0  9999,2 55958  70.0016 357.4481 0002773 266.9973  93.0869 14.98348389 52011,6950.136,96.106,573.928,570.074,0.0
55958.0,STARLINK-5928,PAYLOAD,2024-02-18 05:54:15,14.9835323,0.0002815,70.0013,356.6048,260.3506,99.7335,-0.00017017,-2.124e-05,0.0,0 STARLINK-5928,1 55958U 23037AW  24049.24600955 -.00002124  00000-0 -17017-3 0  9997,2 55958  70.0013 356.6048 0002815 260.3506  99.7335 14.98353230 52400,6950.121,96.106,573.943,570.03,0.0
55958.0,STARLINK-5928,PAYLOAD,2024-02-18 13:54:55,14.98350846,0.0002426,70.0027,355.7637,278.9435,81.1449,-0.00023919,-2.947e-05,0.0,0 STARLINK-5928,1 55958U 23037AW  24049.57981101 -.00002947  00000-0 -23919-3 0  9999,2 55958  70.0027 355.7637 0002426 278.9435  81.1449 14.98350846 52112,6950.128,96.106,573.68,570.307,0.0
55958.0,STARLINK-5928,PAYLOAD,2024-02-18 21:55:36,14.98329865,0.0002752,70.0023,354.9234,273.076,87.0084,8.7595e-05,9.52e-06,0.0,0 STARLINK-5928,1 55958U 23037AW  24049.91361322  .00000952  00000-0  87595-4 0  9997,2 55958  70.0023 354.9234 0002752 273.0760  87.0084 14.98329865 52163,6950.193,96.107,573.971,570.146,0.0
55958.0,STARLINK-5928,PAYLOAD,2024-02-19 04:20:08,14.98331224,0.0002836,70.0018,354.2475,263.9745,96.1091,5.338e-05,5.44e-06,0.0,0 STARLINK-5928,1 55958U 23037AW  24050.18065222  .00000544  00000-0  53380-4 0  9990,2 55958  70.0018 354.2475 0002836 263.9745  96.1091 14.98331224 52544,6950.189,96.107,574.025,570.083,0.0
55958.0,STARLINK-5928,PAYLOAD,2024-02-19 13:56:57,14.98327483,0.0002845,70.002,353.2387,270.9841,89.0992,-4.7683e-05,-6.62e-06,0.0,0 STARLINK-5928,1 55958U 23037AW  24050.58121723 -.00000662  00000-0 -47683-4 0  9995,2 55958  70.0020 353.2387 0002845 270.9841  89.0992 14.98327483 52265,6950.201,96.107,574.043,570.088,0.0
55958.0,STARLINK-5928,PAYLOAD,2024-02-19 20:21:29,14.98323012,0.0002917,70.002,352.5657,270.2531,89.8294,-5.74e-05,-7.78e-06,0.0,0 STARLINK-5928,1 55958U 23037AW  24050.84826050 -.00000778  00000-0 -57400-4 0  9995,2 55958  70.0020 352.5657 0002917 270.2531  89.8294 14.98323012 52645,6950.215,96.107,574.107,570.052,0.0
55958.0,STARLINK-5928,PAYLOAD,2024-02-19 21:57:37,14.98323461,0.000291,70.002,352.3974,270.2581,89.8244,-5.224e-05,-7.16e-06,0.0,0 STARLINK-5928,1 55958U 23037AW  24050.91502023 -.00000716  00000-0 -52240-4 0  9993,2 55958  70.0020 352.3974 0002910 270.2581  89.8244 14.98323461 52310,6950.213,96.107,574.101,570.056,0.0
55958.0,STARLINK-5928,PAYLOAD,2024-02-20 05:58:17,14.98329979,0.0002786,70.0017,351.5559,267.3773,92.7067,-1.8775e-05,-3.17e-06,0.0,0 STARLINK-5928,1 55958U 23037AW  24051.24881567 -.00000317  00000-0 -18775-4 0  9995,2 55958  70.0017 351.5559 0002786 267.3773  92.7067 14.98329979 52706,6950.193,96.107,573.994,570.122,0.0
55958.0,STARLINK-5928,PAYLOAD,2024-02-20 21:59:38,14.98322933,0.0002786,70.0017,349.8729,271.4304,88.6536,0.00015708,1.781e-05,0.0,0 STARLINK-5928,1 55958U 23037AW  24051.91641481  .00001781  00000-0  15708-3 0  9994,2 55958  70.0017 349.8729 0002786 271.4304  88.6536 14.98322933 52462,6950.215,96.107,574.016,570.143,0.0
55958.0,STARLINK-5928,PAYLOAD,2024-02-21 06:00:17,14.98338559,0.00028,70.0015,349.0312,271.946,88.1378,5.4041e-05,5.52e-06,0.0,0 STARLINK-5928,1 55958U 23037AW  24052.25020659  .00000552  00000-0  54041-4 0  9999,2 55958  70.0015 349.0312 0002800 271.9460  88.1378 14.98338559 52858,6950.166,96.106,573.977,570.085,0.0
55958.0,STARLINK-5928,PAYLOAD,2024-02-21 12:24:50,14.98337084,0.0002714,70.0018,348.3572,270.8817,89.2031,-6.7993e-05,-9.04e-06,0.0,0 STARLINK-5928,1 55958U 23037AW  24052.51724967 -.00000904  00000-0 -67993-4 0  9994,2 55958  70.0018 348.3572 0002714 270.8817  89.2031 14.98337084 52556,6950.171,96.107,573.922,570.15,0.0
55958.0,STARLINK-5928,PAYLOAD,2024-02-21 20:25:31,14.98327272,0.0002443,70.0023,347.5172,266.955,93.133,5.7197e-05,5.9e-06,0.0,0 STARLINK-5928,1 55958U 23037AW  24052.85105361  .00000590  00000-0  57197-4 0  9996,2 55958  70.0023 347.5172 0002443 266.9550  93.1330 14.98327272 52945,6950.201,96.107,573.764,570.368,0.0
55958.0,STARLINK-5928,PAYLOAD,2024-02-21 22:01:39,14.9832664,0.000247,70.0023,347.3489,266.3217,93.7659,4.8885e-05,4.9e-06,0.0,0 STARLINK-5928,1 55958U 23037AW  24052.91781421  .00000490  00000-0  48885-4 0  9993,2 55958  70.0023 347.3489 0002470 266.3217  93.7659 14.98326640 52610,6950.203,96.107,573.785,570.352,0.0
55958.0,STARLINK-5928,PAYLOAD,2024-02-22 12:26:51,14.98351147,0.0002558,70.0022,345.833,273.7427,86.344,-0.00042182,-5.125e-05,0.0,0 STARLINK-5928,1 55958U 23037AW  24053.51864999 -.00005125  00000-0 -42182-3 0  9997,2 55958  70.0022 345.8330 0002558 273.7427  86.3440 14.98351147 52705,6950.127,96.106,573.77,570.215,0.0
55958.0,STARLINK-5928,PAYLOAD,2024-02-22 22:03:40,14.98314627,0.0002879,70.0017,344.8227,270.0238,90.0591,0.00020694,2.376e-05,0.0,0 STARLINK-5928,1 55958U 23037AW  24053.91921598  .00002376  00000-0  20694-3 0  9997,2 55958  70.0017 344.8227 0002879 270.0238  90.0591 14.98314627 52766,6950.24,96.108,574.106,570.104,0.0
55958.0,STARLINK-5928,PAYLOAD,2024-02-23 02:52:03,14.98334631,0.000256,70.002,344.3199,260.6629,99.4241,-8.007e-06,-1.88e-06,0.0,0 STARLINK-5928,1 55958U 23037AW  24054.11949022 -.00000188  00000-0 -80070-5 0  9999,2 55958  70.0020 344.3199 0002560 260.6629  99.4241 14.98334631 53133,6950.179,96.107,573.823,570.264,0.0
55958.0,STARLINK-5928,PAYLOAD,2024-02-23 12:28:52,14.98328968,0.0001723,70.0042,343.3084,277.9778,82.1185,-2.1178e-05,-3.45e-06,0.0,0 STARLINK-5928,1 55958U 23037AW  24054.52005660 -.00000345  00000-0 -21178-4 0  9993,2 55958  70.0042 343.3084 0001723 277.9778  82.1185 14.98328968 52855,6950.196,96.107,573.259,570.864,0.0
55958.0,STARLINK-5928,PAYLOAD,2024-02-23 20:29:33,14.98326417,0.0002484,70.0024,342.4682,268.2042,91.8832,1.0517e-05,3.3e-07,0.0,0 STARLINK-5928,1 55958U 23037AW  24054.85385482  .00000033  00000-0  10517-4 0  9999,2 55958  70.0024 342.4682 0002484 268.2042  91.8832 14.98326417 53248,6950.204,96.107,573.795,570.343,0.0
55958.0,STARLINK-5928,PAYLOAD,2024-02-23 22:05:41,14.98325147,0.0002509,70.0021,342.3001,266.9137,93.1735,-1.5057e-05,-2.73e-06,0.0,0 STARLINK-5928,1 55958U 23037AW  24054.92061634 -.00000273  00000-0 -15057-4 0  9999,2 55958  70.0021 342.3001 0002509 266.9137  93.1735 14.98325147 52916,6950.208,96.107,573.817,570.329,0.0
55958.0,STARLINK-5928,PAYLOAD,2024-02-24 12:30:53,14.98325981,0.0002574,70.0014,340.7833,268.9543,91.1321,6.9888e-05,7.41e-06,0.0,0 STARLINK-5928,1 55958U 23037AW  24055.52145461  .00000741  00000-0  69888-4 0  9996,2 55958  70.0014 340.7833 0002574 268.9543  91.1321 14.98325981 53004,6950.205,96.107,573.859,570.281,0.0
55958.0,STARLINK-5928,PAYLOAD,2024-02-24 18:55:25,14.98328915,0.0002709,70.0011,340.1099,271.6413,88.4436,3.427e-05,3.16e-06,0.0,0 STARLINK-5928,1 55958U 23037AW  24055.78849309  .00000316  00000-0  34270-4 0  9991,2 55958  70.0011 340.1099 0002709 271.6413  88.4436 14.98328915 53046,6950.196,96.107,573.944,570.178,0.0
55958.0,STARLINK-5928,PAYLOAD,2024-02-25 04:32:13,14.98337282,0.0002618,70.001,339.0996,267.472,92.6139,6.4902e-05,6.82e-06,0.0,0 STARLINK-5928,1 55958U 23037AW  24056.18904621  .00000682  00000-0  64902-4 0  9996,2 55958  70.0010 339.0996 0002618 267.4720  92.6139 14.98337282 53449,6950.17,96.107,573.855,570.216,0.0
55958.0,STARLINK-5928,PAYLOAD,2024-02-25 12:32:54,14.98336485,0.0002436,70.0017,338.2584,271.0731,89.0149,-1.7952e-05,-3.07e-06,0.0,0 STARLINK-5928,1 55958U 23037AW  24056.52284818 -.00000307  00000-0 -17952-4 0  9992,2 55958  70.0017 338.2584 0002436 271.0731  89.0149 14.98336485 53154,6950.173,96.107,573.731,570.345,0.0
55958.0,STARLINK-5928,PAYLOAD,2024-02-25 22:09:42,14.98333183,0.0002668,70.0008,337.2481,271.591,88.4943,9.661e-05,1.06e-05,0.0,0 STARLINK-5928,1 55958U 23037AW  24056.92340524  .00001060  00000-0  96610-4 0  9996,2 55958  70.0008 337.2481 0002668 271.5910  88.4943 14.98333183 53214,6950.183,96.107,573.902,570.194,0.0
